{
    "links": {
        "self": "http://www.neowsapp.com/rest/v1/neo/3653908?api_key=iIulBulltgU6a56xZRHN4H3l9WmuAYTsLGpBGhQ2"
    },
    "id": "3653908",
    "neo_reference_id": "3653908",
    "name": "(2013 WZ43)",
    "designation": "2013 WZ43",
    "nasa_jpl_url": "http://ssd.jpl.nasa.gov/sbdb.cgi?sstr=3653908",
    "absolute_magnitude_h": 24.4,
    "estimated_diameter": {
        "kilometers": {
            "estimated_diameter_min": 0.0350392641,
            "estimated_diameter_max": 0.0783501764
        },
        "meters": {
            "estimated_diameter_min": 35.0392641108,
            "estimated_diameter_max": 78.3501764334
        },
        "miles": {
            "estimated_diameter_min": 0.0217723826,
            "estimated_diameter_max": 0.0486845275
        },
        "feet": {
            "estimated_diameter_min": 114.9582192654,
            "estimated_diameter_max": 257.0543928497
        }
    },
    "is_potentially_hazardous_asteroid": false,
    "close_approach_data": [
        {
            "close_approach_date": "2013-11-29",
            "close_approach_date_full": "2013-Nov-29 03:31",
            "epoch_date_close_approach": 1385695860000,
            "relative_velocity": {
                "kilometers_per_second": "8.7343547589",
                "kilometers_per_hour": "31443.6771321318",
                "miles_per_hour": "19537.8781602404"
            },
            "miss_distance": {
                "astronomical": "0.0955665939",
                "lunar": "37.1754050271",
                "kilometers": "14296558.890594993",
                "miles": "8883469.7626491834"
            },
            "orbiting_body": "Earth"
        },
        {
            "close_approach_date": "2018-12-03",
            "close_approach_date_full": "2018-Dec-03 04:41",
            "epoch_date_close_approach": 1543812060000,
            "relative_velocity": {
                "kilometers_per_second": "11.559875565",
                "kilometers_per_hour": "41615.5520340284",
                "miles_per_hour": "25858.2856513662"
            },
            "miss_distance": {
                "astronomical": "0.2834315908",
                "lunar": "110.2548888212",
                "kilometers": "42400762.274391596",
                "miles": "26346611.9686761848"
            },
            "orbiting_body": "Earth"
        }
    ],
    "orbital_data": {
        "orbit_id": "5",
        "orbit_determination_date": "2017-04-06 08:43:34",
        "first_observation_date": "2013-11-28",
        "last_observation_date": "2013-12-02",
        "data_arc_in_days": 4,
        "observations_used": 30,
        "orbit_uncertainty": "8",
        "minimum_orbit_intersection": ".093672",
        "jupiter_tisserand_invariant": "4.654",
        "epoch_osculation": "2456625.5",
        "eccentricity": ".2370888230976324",
        "semi_major_axis": "1.414117800071783",
        "inclination": "15.88310063557717",
        "ascending_node_longitude": "248.8870384083793",
        "orbital_period": "614.2240401084971",
        "perihelion_distance": "1.078846275131351",
        "perihelion_argument": "173.1726761841659",
        "aphelion_distance": "1.749389325012215",
        "perihelion_time": "2456619.665884107814",
        "mean_anomaly": "3.41940657486471",
        "mean_motion": ".58610535650218",
        "equinox": "J2000",
        "orbit_class": {
            "orbit_class_type": "AMO",
            "orbit_class_description": "Near-Earth asteroid orbits similar to that of 1221 Amor",
            "orbit_class_range": "1.017 AU < q (perihelion) < 1.3 AU"
        }
    },
    "is_sentry_object": false
}